*******************************************************************************
JPL/HORIZONS                 5 Astraea (A845 XA)           2020-Jun-20 07:47:00
Rec #:       5 (+COV) Soln.date: 2020-May-20_00:55:47   # obs: 3034 (1845-2020)
 
IAU76/J2000 helio. ecliptic osc. elements (au, days, deg., period=Julian yrs):
 
  EPOCH=  2452058.5 ! 2001-May-29.00 (TDB)         Residual RMS= .27804
   EC= .1926481945158232   QR= 2.077891466334788   TP= 2451379.0671077962
   OM= 141.6906088617632   W=  357.6765035711989   IN= 5.36857652897516
   A= 2.573712540456456    MA= 162.1849621131074   ADIST= 3.069533614578125
   PER= 4.12903            N= .238706367           ANGMOM= .027080024
   DAN= 2.07817            DDN= 3.06893            L= 139.3773035
   B= -.2173317            MOID= 1.09056997        TP= 1999-Jul-19.5671077962
 
Asteroid physical parameters (km, seconds, rotational period in hours):
   GM= n.a.                RAD= 53.3495            ROTPER= 16.806
   H= 6.9                  G= .150                 B-V= .826
                           ALBEDO= .274            STYP= S
 
ASTEROID comments: 
1: soln ref.= JPL#114, OCC=0
2: source=ORB
*******************************************************************************
 
 
*******************************************************************************
Ephemeris / WWW_USER Sat Jun 20 07:47:00 2020 Pasadena, USA      / Horizons
*******************************************************************************
Target body name: 5 Astraea (A845 XA)             {source: JPL#114}
Center body name: Solar System Barycenter (0)     {source: DE431}
Center-site name: BODY CENTER
*******************************************************************************
Start time      : A.D. 1969-Jun-28 00:00:00.0000 TDB
Stop  time      : A.D. 2071-May-04 00:00:00.0000 TDB
Step-size       : 7200 minutes
*******************************************************************************
Center geodetic : 0.00000000,0.00000000,0.0000000 {E-lon(deg),Lat(deg),Alt(km)}
Center cylindric: 0.00000000,0.00000000,0.0000000 {E-lon(deg),Dxy(km),Dz(km)}
Center radii    : (undefined)                                                  
Small perturbers: Yes                             {source: SB431-N16}
Output units    : AU-D
Output type     : GEOMETRIC cartesian states
Output format   : 2 (position and velocity)
Reference frame : Ecliptic of J2000.0
*******************************************************************************
Initial IAU76/J2000 heliocentric ecliptic osculating elements (au, days, deg.):
  EPOCH=  2452058.5 ! 2001-May-29.00 (TDB)         Residual RMS= .27804        
   EC= .1926481945158232   QR= 2.077891466334788   TP= 2451379.0671077962      
   OM= 141.6906088617632   W=  357.6765035711989   IN= 5.36857652897516        
  Equivalent ICRF heliocentric equatorial cartesian coordinates (au, au/d):
   X= 1.840634775022976E+00  Y=-2.262197741986918E+00  Z=-9.020036609538016E-01
  VX= 7.329362844675849E-03 VY= 4.860717326287397E-03 VZ= 1.243809908343458E-03
Asteroid physical parameters (km, seconds, rotational period in hours):        
   GM= n.a.                RAD= 53.3495            ROTPER= 16.806              
   H= 6.9                  G= .150                 B-V= .826                   
                           ALBEDO= .274            STYP= S                     
*******************************************************************************
            JDTDB,            Calendar Date (TDB),        delta-T,                      X,                      Y,                      Z,                     VX,                     VY,                     VZ,
******************************************************************************************************************************************************************************************************************
$$SOE
2442500.500000000, A.D. 1975-Mar-29 00:00:00.0000,      46.185645, -2.134245995724737E+00, -8.168664507783282E-01,  1.829782372675721E-01,  2.568037069604945E-03, -1.169237280909262E-02,  7.123374814063443E-04,
2442505.500000000, A.D. 1975-Apr-03 00:00:00.0000,      46.185654, -2.120752983311216E+00, -8.750718932433065E-01,  1.864834312853757E-01,  2.828369343778975E-03, -1.158882459478490E-02,  6.897140257935851E-04,
2442510.500000000, A.D. 1975-Apr-08 00:00:00.0000,      46.185653, -2.105970375729515E+00, -9.327450932484747E-01,  1.898751357553381E-01,  3.083857939384684E-03, -1.147951425496835E-02,  6.669454829400322E-04,
2442515.500000000, A.D. 1975-Apr-13 00:00:00.0000,      46.185641, -2.089922639765351E+00, -9.898578155046220E-01,  1.931526819187881E-01,  3.334405399076615E-03, -1.136467168537363E-02,  6.440543968458017E-04,
2442520.500000000, A.D. 1975-Apr-18 00:00:00.0000,      46.185616, -2.072634701350495E+00, -1.046382970171779E+00,  1.963155118201764E-01,  3.579925449998639E-03, -1.124452508440442E-02,  6.210625425600554E-04,
2442525.500000000, A.D. 1975-Apr-23 00:00:00.0000,      46.185577, -2.054131890728602E+00, -1.102294603126761E+00,  1.993631744327053E-01,  3.820342566281688E-03, -1.111930046230303E-02,  5.979909150023270E-04,
2442530.500000000, A.D. 1975-Apr-28 00:00:00.0000,      46.185526, -2.034439889838356E+00, -1.157567883888222E+00,  2.022953217378698E-01,  4.055591520224919E-03, -1.098922119483910E-02,  5.748597216633073E-04,
2442535.500000000, A.D. 1975-May-03 00:00:00.0000,      46.185465, -2.013584681961856E+00, -1.212179091419488E+00,  2.051117047776795E-01,  4.285616925522511E-03, -1.085450762056639E-02,  5.516883789385403E-04,
2442540.500000000, A.D. 1975-May-08 00:00:00.0000,      46.185395, -1.991592503671064E+00, -1.266105598024442E+00,  2.078121696972161E-01,  4.510372775203484E-03, -1.071537668058095E-02,  5.284955119029120E-04,
2442545.500000000, A.D. 1975-May-13 00:00:00.0000,      46.185315, -1.968489799093034E+00, -1.319325851545192E+00,  2.103966537943577E-01,  4.729821976576004E-03, -1.057204159913170E-02,  5.052989573743565E-04,
2442550.500000000, A.D. 1975-May-18 00:00:00.0000,      46.185226, -1.944303176502438E+00, -1.371819356060086E+00,  2.128651815925704E-01,  4.943935885849949E-03, -1.042471160272523E-02,  4.821157700250918E-04,
2442555.500000000, A.D. 1975-May-23 00:00:00.0000,      46.185126, -1.919059367235739E+00, -1.423566651268372E+00,  2.152178609511553E-01,  5.152693845319563E-03, -1.027359167529824E-02,  4.589622311888251E-04,
2442560.500000000, A.D. 1975-May-28 00:00:00.0000,      46.185017, -1.892785186907550E+00, -1.474549290736292E+00,  2.174548792254681E-01,  5.356082725705508E-03, -1.011888234726764E-02,  4.358538599799332E-04,
2442565.500000000, A.D. 1975-Jun-02 00:00:00.0000,      46.184902, -1.865507498897736E+00, -1.524749819168959E+00,  2.195764994877475E-01,  5.554096475849410E-03, -9.960779516486004E-03,  4.128054263598386E-04,
2442570.500000000, A.D. 1975-Jun-07 00:00:00.0000,      46.184782, -1.837253180067877E+00, -1.574151748862894E+00,  2.215830568174907E-01,  5.746735681531339E-03, -9.799474299228969E-03,  3.898309658448527E-04,
2442575.500000000, A.D. 1975-Jun-12 00:00:00.0000,      46.184657, -1.808049088657786E+00, -1.622739535484506E+00,  2.234749546689467E-01,  5.934007134864714E-03, -9.635152909249456E-03,  3.669437956071397E-04,
2442580.500000000, A.D. 1975-Jun-17 00:00:00.0000,      46.184527, -1.777922034305754E+00, -1.670498553309760E+00,  2.252526613221145E-01,  6.115923415634838E-03, -9.467996562864294E-03,  3.441565317348019E-04,
2442585.500000000, A.D. 1975-Jun-22 00:00:00.0000,      46.184391, -1.746898750129511E+00, -1.717415070050432E+00,  2.269167064224488E-01,  6.292502485870097E-03, -9.298181408223336E-03,  3.214811074201860E-04,
2442590.500000000, A.D. 1975-Jun-27 00:00:00.0000,      46.184252, -1.715005866799140E+00, -1.763476221383964E+00,  2.284676776134301E-01,  6.463767298608381E-03, -9.125878477254391E-03,  2.989287918918664E-04,
2442595.500000000, A.D. 1975-Jul-02 00:00:00.0000,      46.184112, -1.682269888529677E+00, -1.808669985296980E+00,  2.299062172654262E-01,  6.629745421286043E-03, -8.951253658958149E-03,  2.765102099893920E-04,
2442600.500000000, A.D. 1975-Jul-07 00:00:00.0000,      46.183973, -1.648717170920171E+00, -1.852985156345684E+00,  2.312330193039366E-01,  6.790468673732949E-03, -8.774467692601281E-03,  2.542353623361020E-04,
2442605.500000000, A.D. 1975-Jul-12 00:00:00.0000,      46.183835, -1.614373900566628E+00, -1.896411319928381E+00,  2.324488261401010E-01,  6.945972780609253E-03, -8.595676179058263E-03,  2.321136460588428E-04,
2442610.500000000, A.D. 1975-Jul-17 00:00:00.0000,      46.183696, -1.579266076376792E+00, -1.938938826655988E+00,  2.335544257059708E-01,  7.096297038233087E-03, -8.415029608325967E-03,  2.101538759526036E-04,
2442615.500000000, A.D. 1975-Jul-22 00:00:00.0000,      46.183559, -1.543419492514539E+00, -1.980558766896324E+00,  2.345506485963951E-01,  7.241483995960878E-03, -8.232673401186091E-03,  1.883643059294856E-04,
2442620.500000000, A.D. 1975-Jul-27 00:00:00.0000,      46.183424, -1.506859722900295E+00, -2.021262945558115E+00,  2.354383653184480E-01,  7.381579152452735E-03, -8.048747963149737E-03,  1.667526505527382E-04,
2442625.500000000, A.D. 1975-Aug-01 00:00:00.0000,      46.183294, -1.469612107192275E+00, -2.061043857172320E+00,  2.362184836483483E-01,  7.516630667102882E-03, -7.863388749250135E-03,  1.453261064774411E-04,
2442630.500000000, A.D. 1975-Aug-06 00:00:00.0000,      46.183171, -1.431701738172826E+00, -2.099894661322538E+00,  2.368919460951757E-01,  7.646689086501466E-03, -7.676726338733095E-03,  1.240913737238953E-04,
2442635.500000000, A.D. 1975-Aug-11 00:00:00.0000,      46.183054, -1.393153450465862E+00, -2.137809158471562E+00,  2.374597274705216E-01,  7.771807085465490E-03, -7.488886518634575E-03,  1.030546767768070E-04,
